[{"OBJECT_NAME":"SAOCOM 1A","OBJECT_ID":"2018-076A","EPOCH":"2026-03-27T20:28:48.602784","MEAN_MOTION":14.82158281,"ECCENTRICITY":0.0001442,"INCLINATION":97.8907,"RA_OF_ASC_NODE":274.7696,"ARG_OF_PERICENTER":84.2986,"MEAN_ANOMALY":275.8391,"EPHEMERIS_TYPE":0,"CLASSIFICATION_TYPE":"U","NORAD_CAT_ID":43641,"ELEMENT_SET_NO":999,"REV_AT_EPOCH":40405,"BSTAR":2.5123e-5,"MEAN_MOTION_DOT":1.48e-6,"MEAN_MOTION_DDOT":0},{"OBJECT_NAME":"H-2A R/B","OBJECT_ID":"2018-084L","EPOCH":"2026-03-27T13:56:48.907968","MEAN_MOTION":15.42089529,"ECCENTRICITY":0.0023874,"INCLINATION":98.8713,"RA_OF_ASC_NODE":307.8013,"ARG_OF_PERICENTER":323.0369,"MEAN_ANOMALY":36.9227,"EPHEMERIS_TYPE":0,"CLASSIFICATION_TYPE":"U","NORAD_CAT_ID":43682,"ELEMENT_SET_NO":999,"REV_AT_EPOCH":40853,"BSTAR":0.00045051,"MEAN_MOTION_DOT":0.00019369,"MEAN_MOTION_DDOT":0},{"OBJECT_NAME":"SAOCOM 1B","OBJECT_ID":"2020-059A","EPOCH":"2026-03-27T19:36:34.357248","MEAN_MOTION":14.82157176,"ECCENTRICITY":0.0001538,"INCLINATION":97.8908,"RA_OF_ASC_NODE":273.8317,"ARG_OF_PERICENTER":87.711,"MEAN_ANOMALY":272.4279,"EPHEMERIS_TYPE":0,"CLASSIFICATION_TYPE":"U","NORAD_CAT_ID":46265,"ELEMENT_SET_NO":999,"REV_AT_EPOCH":30143,"BSTAR":0.00014917,"MEAN_MOTION_DOT":1.136e-5,"MEAN_MOTION_DDOT":0},{"OBJECT_NAME":"CSS (TIANHE)","OBJECT_ID":"2021-035A","EPOCH":"2026-03-27T19:40:26.533056","MEAN_MOTION":15.61560654,"ECCENTRICITY":0.0004161,"INCLINATION":41.4669,"RA_OF_ASC_NODE":97.7682,"ARG_OF_PERICENTER":40.1011,"MEAN_ANOMALY":320.0134,"EPHEMERIS_TYPE":0,"CLASSIFICATION_TYPE":"U","NORAD_CAT_ID":48274,"ELEMENT_SET_NO":999,"REV_AT_EPOCH":28044,"BSTAR":0.00018751,"MEAN_MOTION_DOT":0.00016258,"MEAN_MOTION_DDOT":0},{"OBJECT_NAME":"COSMOS 2550","OBJECT_ID":"2021-056A","EPOCH":"2026-03-27T15:28:50.592864","MEAN_MOTION":15.33839474,"ECCENTRICITY":0.0008393,"INCLINATION":67.1425,"RA_OF_ASC_NODE":346.5698,"ARG_OF_PERICENTER":268.9304,"MEAN_ANOMALY":91.0889,"EPHEMERIS_TYPE":0,"CLASSIFICATION_TYPE":"U","NORAD_CAT_ID":48865,"ELEMENT_SET_NO":999,"REV_AT_EPOCH":26621,"BSTAR":1.621e-7,"MEAN_MOTION_DOT":-1.86e-6,"MEAN_MOTION_DDOT":0},{"OBJECT_NAME":"CZ-2C R/B","OBJECT_ID":"2022-058K","EPOCH":"2026-03-27T13:42:12.856896","MEAN_MOTION":15.55520683,"ECCENTRICITY":0.0041515,"INCLINATION":50.1873,"RA_OF_ASC_NODE":226.2169,"ARG_OF_PERICENTER":277.4037,"MEAN_ANOMALY":82.2218,"EPHEMERIS_TYPE":0,"CLASSIFICATION_TYPE":"U","NORAD_CAT_ID":52794,"ELEMENT_SET_NO":999,"REV_AT_EPOCH":21291,"BSTAR":0.00052,"MEAN_MOTION_DOT":0.00037365,"MEAN_MOTION_DDOT":0},{"OBJECT_NAME":"CZ-2C R/B","OBJECT_ID":"2022-132E","EPOCH":"2026-03-27T17:59:46.532832","MEAN_MOTION":15.63535904,"ECCENTRICITY":0.0017924,"INCLINATION":97.2963,"RA_OF_ASC_NODE":90.6381,"ARG_OF_PERICENTER":32.5235,"MEAN_ANOMALY":327.7124,"EPHEMERIS_TYPE":0,"CLASSIFICATION_TYPE":"U","NORAD_CAT_ID":54039,"ELEMENT_SET_NO":999,"REV_AT_EPOCH":19319,"BSTAR":0.0005239,"MEAN_MOTION_DOT":0.00048974,"MEAN_MOTION_DDOT":0},{"OBJECT_NAME":"GSLV R/B","OBJECT_ID":"2022-138AN","EPOCH":"2026-03-27T16:54:06.978816","MEAN_MOTION":14.96886692,"ECCENTRICITY":0.0024055,"INCLINATION":87.3863,"RA_OF_ASC_NODE":160.332,"ARG_OF_PERICENTER":87.3973,"MEAN_ANOMALY":273.0012,"EPHEMERIS_TYPE":0,"CLASSIFICATION_TYPE":"U","NORAD_CAT_ID":54149,"ELEMENT_SET_NO":999,"REV_AT_EPOCH":18662,"BSTAR":0.00017484,"MEAN_MOTION_DOT":2.046e-5,"MEAN_MOTION_DDOT":0},{"OBJECT_NAME":"XRISM","OBJECT_ID":"2023-137A","EPOCH":"2026-03-27T14:26:09.131712","MEAN_MOTION":15.11700228,"ECCENTRICITY":0.0007957,"INCLINATION":31.0015,"RA_OF_ASC_NODE":167.7898,"ARG_OF_PERICENTER":219.7178,"MEAN_ANOMALY":140.2878,"EPHEMERIS_TYPE":0,"CLASSIFICATION_TYPE":"U","NORAD_CAT_ID":57800,"ELEMENT_SET_NO":999,"REV_AT_EPOCH":14050,"BSTAR":0.00032405,"MEAN_MOTION_DOT":5.757e-5,"MEAN_MOTION_DDOT":0},{"OBJECT_NAME":"ACS3","OBJECT_ID":"2024-077B","EPOCH":"2026-03-27T18:45:27.959040","MEAN_MOTION":13.90428183,"ECCENTRICITY":0.0072212,"INCLINATION":97.1971,"RA_OF_ASC_NODE":23.8266,"ARG_OF_PERICENTER":35.1438,"MEAN_ANOMALY":325.4459,"EPHEMERIS_TYPE":0,"CLASSIFICATION_TYPE":"U","NORAD_CAT_ID":59588,"ELEMENT_SET_NO":999,"REV_AT_EPOCH":9671,"BSTAR":0.020039,"MEAN_MOTION_DOT":0.00025469,"MEAN_MOTION_DDOT":0},{"OBJECT_NAME":"SZ-21 MODULE","OBJECT_ID":"2025-246C","EPOCH":"2026-03-27T16:50:49.909056","MEAN_MOTION":15.6991592,"ECCENTRICITY":0.0001454,"INCLINATION":41.4743,"RA_OF_ASC_NODE":92.3645,"ARG_OF_PERICENTER":209.3733,"MEAN_ANOMALY":150.7028,"EPHEMERIS_TYPE":0,"CLASSIFICATION_TYPE":"U","NORAD_CAT_ID":66515,"ELEMENT_SET_NO":999,"REV_AT_EPOCH":2090,"BSTAR":0.0003014,"MEAN_MOTION_DOT":0.00037039,"MEAN_MOTION_DDOT":0}]
